P/2020 S7 (PANSTARRS),e,16.0638,328.0125,40.7264,5.038205,0.0871546,0.40909566,169.5702,03/16.0/2026,2000,g 14.5,4.0
# From MPEC 2026-E44
C/2020 S8 (Lemmon),e,108.5605,23.9623,160.0998,235.2519,0.0002732,0.98998833,0.0000,04/10.1041/2021,2000,g 12.5,4.0
# From MPEC 2026-E44
C/2020 T2 (Palomar),e,27.8608,82.9069,150.3682,257.7399,0.0002382,0.99205769,0.0000,07/10.6864/2021,2000,g 11.0,3.2
# From MPEC 2026-E44
P/2020 T3 (PANSTARRS),e,7.2997,73.9778,357.1077,3.515605,0.1495216,0.59235515,280.8120,03/16.0/2026,2000,g 18.0,3.2
# From MPEC 2026-E44
C/2020 T4 (PANSTARRS),h,07/06.4378/2021,83.7927,50.5842,79.5678,1.000834,2.185979,2000,13.0,3.2
# From MPEC 2026-E44
C/2020 T5 (Lemmon),e,66.5820,237.8747,90.3818,610.0727,0.0000654,0.99688598,0.0000,10/07.1062/2020,2000,g 16.0,4.0
# From MPEC 2026-E44
P/2020 U2 (PANSTARRS),e,6.4186,342.7746,84.8261,3.777661,0.1342362,0.51120241,255.6022,03/16.0/2026,2000,g 18.0,4.0
# From MPEC 2026-E44
C/2020 U3 (Rankin),e,30.1395,282.5472,124.6155,67.71308,0.0017689,0.96618105,3.2980,03/16.0/2026,2000,g 15.0,4.0
# From MPEC 2026-E44
C/2020 U4 (PANSTARRS),h,04/10.4281/2022,167.0039,120.4048,70.2023,1.001745,5.363151,2000,7.0,4.0
# From MPEC 2026-E44
C/2020 U5 (PANSTARRS),h,04/28.7146/2022,97.3163,107.3133,75.4705,1.000017,3.756121,2000,8.0,4.0
# From MPC188409
C/2020 V2 (ZTF),h,05/08.6289/2023,131.6074,212.4308,162.4945,1.001232,2.229760,2000,4.9,4.0
# From MPEC 2026-E44
P/2020 V3 (PANSTARRS),e,23.0131,198.2728,249.9452,8.413219,0.0403888,0.25774969,74.8333,03/16.0/2026,2000,g  8.3,4.0
# From MPEC 2026-E44
P/2020 V4 (Rankin),e,14.2311,203.4872,257.3460,9.405551,0.0341686,0.45159517,58.0402,03/16.0/2026,2000,g  9.0,4.0
# From MPEC 2026-E44
P/2020 W1 (Rankin),e,10.7770,124.2573,265.5497,7.227344,0.0507266,0.26494414,109.9142,03/16.0/2026,2000,g 10.0,4.0
# From MPEC 2026-E44
C/2020 W5 (Lemmon),h,12/01.0747/2020,88.6098,75.4578,24.6502,1.002805,3.374204,2000,15.0,4.0
# From MPEC 2026-E44
P/2020 WJ5 (Lemmon),e,22.2897,177.7429,338.1603,6.016096,0.0667932,0.17233232,114.7769,03/16.0/2026,2000,g  8.5,4.0
# From MPEC 2026-E44
P/2020 X1 (ATLAS),e,31.6859,55.9941,323.5274,4.538006,0.1019545,0.36398852,210.6309,03/16.0/2026,2000,g 13.0,4.0
# From MPEC 2026-E44
C/2020 X2 (ATLAS),e,18.1871,105.3513,347.6379,16.56480,0.0146192,0.76838295,28.4299,03/16.0/2026,2000,g 10.6,4.0
# From MPEC 2026-E44
C/2020 X4 (Leonard),e,80.6625,161.9642,140.2502,40.28720,0.0038544,0.87038889,7.5049,03/16.0/2026,2000,g  9.0,4.0
# From MPEC 2026-E44
C/2020 Y2 (ATLAS),e,101.2486,26.5525,266.4193,1189,0.0000240,0.99735425,0.0000,06/17.5645/2022,2000,g  6.5,4.0
# From MPEC 2026-E44
C/2020 Y3 (ATLAS),e,83.1738,191.2906,341.8509,137.2942,0.0006127,0.98550609,0.0000,12/03.2222/2020,2000,g 13.5,4.0
# From MPEC 2026-E44
C/2021 A1 (Leonard),h,01/04.1784/2022,132.7271,255.8978,225.1086,1.000268,0.614110,2000,8.5,4.0
# From MPEC 2026-E44
C/2021 A2 (NEOWISE),e,107.0716,125.0342,338.8382,232.3623,0.0002783,0.99389189,0.0000,01/21.7050/2021,2000,g 13.5,4.0
# From MPEC 2026-E44
C/2021 A4 (NEOWISE),e,111.6809,307.0858,204.7737,42.67608,0.0035353,0.97302608,0.0000,03/19.8294/2021,2000,g 16.0,4.0
# From MPEC 2026-E44
P/2021 A5 (PANSTARRS),e,18.1850,328.6791,62.1404,3.052378,0.1848190,0.14105811,359.2992,03/16.0/2026,2000,g 15.0,4.0
# From MPEC 2026-E44
C/2021 A6 (PANSTARRS),e,75.5540,164.0031,351.6586,21130,0.0000003,0.99962484,0.0000,05/03.4716/2021,2000,g  7.0,4.0
# From MPEC 2026-E44
C/2021 A7 (NEOWISE),e,78.2483,154.3661,356.0301,2092,0.0000103,0.99905990,0.0000,07/15.2263/2021,2000,g 10.0,4.0
# From MPEC 2026-E43
C/2021 A9 (PANSTARRS),e,158.0176,314.8495,211.6816,53454,0.0000001,0.99985471,0.0000,12/04.5884/2023,2000,g  6.0,4.0
# From MPEC 2026-E44
C/2021 A10 (NEOWISE),e,152.0409,188.9191,82.6821,84.14490,0.0012769,0.98492537,0.0000,03/14.5339/2021,2000,g 19.0,4.0
# From MPEC 2026-E44
C/2021 B2 (PANSTARRS),e,38.0922,120.4029,335.2007,422.2245,0.0001136,0.99403509,0.0000,05/04.8475/2021,2000,g 14.0,4.0
# From MPEC 2026-E44
C/2021 B3 (NEOWISE),e,119.4864,67.3103,293.6611,34.23941,0.0049194,0.93656350,9.0179,03/16.0/2026,2000,g 13.5,4.0
# From MPEC 2026-E44
C/2021 C1 (Rankin),e,143.0453,186.7872,336.0191,1531,0.0000164,0.99773161,0.0000,12/05.0771/2020,2000,g 11.5,4.0
# From MPEC 2026-E44
P/2021 C2 (PANSTARRS),e,21.9326,66.4507,78.7747,9.551694,0.0333875,0.48864723,61.5847,03/16.0/2026,2000,g 12.0,4.0
# From MPEC 2026-E44
C/2021 C3 (Catalina),e,122.2376,181.8120,356.9712,60.27157,0.0021064,0.96223351,3.9164,03/16.0/2026,2000,g 14.0,4.0
# From MPEC 2026-E44
C/2021 C4 (ATLAS),e,132.8221,194.1968,319.9764,2705,0.0000070,0.99833937,0.0000,01/15.6275/2021,2000,g  9.0,4.0
# From MPEC 2026-E44
C/2021 C5 (PANSTARRS),e,50.8082,323.6755,270.8629,1683,0.0000143,0.99807570,0.0000,02/11.0405/2023,2000,g  9.0,4.0
# From MPEC 2026-E44
C/2021 C6 (Lemmon),e,164.6103,332.3224,203.9250,2775,0.0000067,0.99881392,0.0000,11/11.4866/2021,2000,g 12.0,4.0
# From MPEC 2026-E44
C/2021 D1 (SWAN),e,31.3207,311.0576,72.5998,101.9061,0.0009581,0.99106289,0.0000,02/26.8647/2021,2000,g 13.0,4.0
# From MPC191586
C/2021 D2 (ZTF),h,02/03.3357/2022,83.7639,305.6123,125.1032,1.001376,2.952752,2000,9.0,4.0
# From MPEC 2026-E44
A/2021 E2,e,167.4984,190.7056,342.1794,195.9511,0.0003593,0.98833936,0.0000,12/08.1771/2020,2000,g 15.0,2.0
# From MPEC 2026-E44
C/2021 E3 (ZTF),e,112.5204,104.4839,228.7789,3311,0.0000052,0.99946306,0.0000,06/10.5478/2022,2000,g  8.5,4.0
# From MPEC 2026-E44
A/2021 E4,e,116.3996,171.1265,48.3130,511.7978,0.0000851,0.99085038,0.0000,04/24.8925/2022,2000,g 13.5,2.0
# From MPEC 2026-E44
C/2021 F1 (Lemmon-PANSTARRS),e,107.2699,203.6045,146.9694,241.0749,0.0002633,0.99585356,0.0000,04/06.7492/2022,2000,g 13.5,4.0
# From MPEC 2026-E44
C/2021 G1 (Leonard),e,131.5494,270.7084,107.4831,71.76152,0.0016213,0.95218035,2.7565,03/16.0/2026,2000,g 14.0,4.0
# From MPEC 2026-E44
C/2021 G2 (ATLAS),h,09/09.1587/2024,48.4589,221.0882,343.2674,1.001064,4.982026,2000,5.5,4.0
# From MPEC 2026-E44
C/2021 G3 (PANSTARRS),e,102.8786,147.3242,10.6317,13390,0.0000006,0.99961272,0.0000,10/17.9897/2021,2000,g 10.5,4.0
# From MPEC 2026-E44
P/2021 HS (PANSTARRS),e,12.1458,262.3145,46.1257,4.192752,0.1148036,0.80972361,193.5106,03/16.0/2026,2000,g 22.0,4.0
# From MPEC 2026-E44
C/2021 J1 (Maury-Attard),e,92.7111,88.4232,147.1448,26.13537,0.0073767,0.93378600,13.6508,03/16.0/2026,2000,g 15.5,4.0
# From MPEC 2026-E44
C/2021 J2 (PANSTARRS),e,156.2121,23.2904,171.8479,109.8984,0.0008555,0.95721180,1.4013,03/16.0/2026,2000,g 12.0,4.0
# From MPEC 2026-E44
P/2021 J3 (ATLAS),e,14.5110,110.9136,125.5415,8.877929,0.0372595,0.44989306,91.3277,03/16.0/2026,2000,g  7.0,4.0
# From MPEC 2026-E44
C/2021 K1 (ATLAS),e,16.2681,140.9325,184.1894,12.58373,0.0220795,0.80108747,39.2942,03/16.0/2026,2000,g 11.0,4.0
# From MPEC 2026-E44
C/2021 K2 (MASTER),h,09/08.6138/2021,100.8858,282.2936,343.2286,1.000151,5.457686,2000,8.0,4.0
# From MPEC 2026-E44
C/2021 K3 (Catalina),h,02/02.5670/2022,134.7944,114.5194,181.9779,1.003067,5.221674,2000,10.0,4.0
# From MPEC 2026-E44
P/2021 L2 (Leonard),e,21.0606,266.6369,51.4007,4.046449,0.1210857,0.52128108,205.5685,03/16.0/2026,2000,g 17.0,4.0
# From MPEC 2026-E44
C/2021 L3 (Borisov),h,02/14.9210/2022,78.5204,345.0261,91.6615,1.004162,8.461968,2000,6.0,4.0
# From MPEC 2026-E44
P/2021 N1 (ZTF),e,11.4853,301.1315,21.2147,2.980563,0.1915388,0.67574268,334.3657,03/16.0/2026,2000,g 19.0,4.0
# From MPEC 2026-E44
P/2021 N2 (Fuls),e,13.0582,221.7546,177.6497,6.947921,0.0538173,0.45173584,85.2139,03/16.0/2026,2000,g  9.5,4.0
# From MPEC 2026-E44
C/2021 N3 (PANSTARRS),e,26.7717,337.5436,304.5147,138.1324,0.0006071,0.95868476,1.2371,03/16.0/2026,2000,g  8.5,4.0
# From MPEC 2026-E44
C/2021 O1 (Nishimura),h,08/15.0802/2021,27.5372,41.5109,74.4671,1.000238,0.782961,2000,10.5,4.0
# From MPEC 2026-E44
C/2021 O3 (PANSTARRS),h,04/21.4327/2022,56.8561,188.6408,300.0963,1.000067,0.284912,2000,10.5,4.0
# From MPEC 2026-E44
C/2021 P1 (PANSTARRS),e,51.6063,359.7273,40.5302,2301,0.0000089,0.99809572,0.0000,06/02.2929/2022,2000,g 11.0,4.0
# From MPEC 2026-E44
C/2021 P2 (PANSTARRS),e,150.0450,32.1025,76.6915,11520,0.0000008,0.99956026,0.0000,01/22.9790/2023,2000,g  9.0,4.0
# From MPEC 2026-E44
P/2021 P3 (PANSTARRS),e,27.1651,358.2425,333.9421,4.411597,0.1063678,0.33849172,186.5289,03/16.0/2026,2000,g 14.0,4.0
# From MPEC 2026-E44
C/2021 P4 (ATLAS),e,56.4145,347.9679,175.8298,300.2523,0.0001894,0.99640853,0.0000,07/30.5675/2022,2000,g  9.5,4.0
# From MPEC 2026-E44
P/2021 PE20 (ATLAS),e,19.9971,99.6156,210.4238,3.745250,0.1359824,0.67051379,237.3030,03/16.0/2026,2000,g 17.0,4.0
# From MPEC 2026-E44
C/2021 Q3 (ATLAS),e,77.7067,307.9044,114.1645,74.61294,0.0015293,0.93014897,2.3097,03/16.0/2026,2000,g  8.0,4.0
# From MPEC 2026-E44
C/2021 Q4 (Fuls),h,06/10.1243/2023,71.5560,183.3372,147.0051,1.000307,7.563256,2000,6.0,4.0
# From MPEC 2026-E44
P/2021 Q5 (ATLAS),e,10.7375,239.7306,180.9739,3.284197,0.1656000,0.62417350,274.4496,03/16.0/2026,2000,g 15.0,4.0
# From MPEC 2026-E44
C/2021 Q6 (PANSTARRS),h,03/25.3034/2024,161.8277,133.5734,141.0610,1.003533,8.707331,2000,6.0,4.0
# From MPEC 2026-E44
C/2021 QM45 (PANSTARRS),e,22.7855,354.5902,72.9692,413.7084,0.0001171,0.99327738,0.0000,08/13.5312/2022,2000,g 11.0,4.0
# From MPEC 2026-E44
P/2021 R1 (PANSTARRS),e,5.5412,143.0498,219.9549,8.234369,0.0417118,0.40634746,65.1571,03/16.0/2026,2000,g 11.0,4.0
# From MPEC 2026-E44
C/2021 R2 (PANSTARRS),e,134.4774,16.3625,32.5619,20199,0.0000003,0.99963785,0.0000,12/28.6084/2021,2000,g  7.5,4.0
# From MPEC 2026-E44
P/2021 R3 (PANSTARRS),e,19.9455,304.1989,2.5759,3.767640,0.1347721,0.33228386,236.6154,03/16.0/2026,2000,g 16.0,4.0
# From MPEC 2026-E44
P/2021 R4 (Wierzchos),e,21.0046,321.2373,56.8302,5.628707,0.0738059,0.58488891,119.2216,03/16.0/2026,2000,g 16.0,4.0
# From MPEC 2026-E44
P/2021 R5 (Rankin),e,7.8527,219.9693,167.6083,4.799191,0.0937459,0.30554067,142.8997,03/16.0/2026,2000,g 12.0,4.0
# From MPEC 2026-E44
